{"fetched_at":"2026-03-29T02:12:04Z","count":15717,"tles":[{"name":"STARLINK-11632 [DTC]","line1":"1 63108U 25039E   26087.57230846  .00249356  00000+0  18829-2 0  9993","line2":"2 63108  43.0013 123.1662 0001175 265.9096  94.1637 15.70918121 62589","category":"Starlink"}]}